     2.100          NAVIGATION                              RINEX VERSION / TYPE
fic2rin                                 02/12/2011 00:33:16 PGM / RUN BY / DATE
                                                            END OF HEADER
 3 11  2 11 16  0  0.0  .674661714584D-03  .500222085975D-11  .000000000000D+00
     .170000000000D+02 -.232812500000D+02  .553487340684D-08 -.827854383801D+00
    -.998377799988D-06  .139475283213D-01  .686757266521D-05  .515363756943D+04
     .489600000000D+06  .372529029846D-08 -.161595412972D+00  .288709998131D-06
     .928648203297D+00  .231531250000D+03  .107222456463D+01 -.863250243552D-08
     .160363822654D-09  .100000000000D+01  .162200000000D+04  .000000000000D+00
     .240000000000D+01  .000000000000D+00 -.419095158577D-08  .170000000000D+02
     .482406000000D+06  .400000000000D+01
 4 11  2 11 16  0  0.0  .329106114805D-04  .102318153949D-10  .000000000000D+00
     .310000000000D+02  .518750000000D+01  .519343061295D-08  .220884479939D+01
     .160187482834D-06  .961431337055D-02  .898912549019D-05  .515359103966D+04
     .489600000000D+06 -.184401869774D-06  .101188446914D+01 -.176951289177D-06
     .938252882227D+00  .196031250000D+03  .709351203645D+00 -.813641034272D-08
    -.228580949885D-09  .100000000000D+01  .162200000000D+04  .000000000000D+00
     .240000000000D+01  .000000000000D+00 -.605359673500D-08  .310000000000D+02
     .482406000000D+06  .400000000000D+01
 5 11  2 11 16  0  0.0 -.113137997687D-03 -.591171556152D-11  .000000000000D+00
     .350000000000D+02  .738437500000D+02  .465769401165D-08  .905256469440D+00
     .403076410294D-05  .225170503836D-02  .792369246483D-05  .515361587524D+04
     .489600000000D+06  .111758708954D-07  .205597596925D+01  .204890966415D-07
     .955020379655D+00  .220625000000D+03  .280963057753D+00 -.808926552181D-08
    -.153934983439D-09  .100000000000D+01  .162200000000D+04  .000000000000D+00
     .240000000000D+01  .000000000000D+00 -.977888703346D-08  .350000000000D+02
     .482406000000D+06  .400000000000D+01
 7 11  2 11 16  0  0.0  .344309955835D-05  .795807864051D-12  .000000000000D+00
     .470000000000D+02 -.630312500000D+02  .413767235066D-08 -.250840421137D+01
    -.324100255966D-05  .416492368095D-02  .604428350925D-05  .515367636681D+04
     .489600000000D+06 -.335276126862D-07 -.212375752963D+01 -.745058059692D-08
     .973790999607D+00  .271218750000D+03 -.309734420932D+01 -.796068873750D-08
    -.225009372544D-10  .100000000000D+01  .162200000000D+04  .000000000000D+00
     .240000000000D+01  .000000000000D+00 -.107102096081D-07  .470000000000D+02
     .482406000000D+06  .400000000000D+01
 8 11  2 11 16  0  0.0  .734860077500D-05  .000000000000D+00  .000000000000D+00
     .750000000000D+02 -.660312500000D+02  .359979280296D-08 -.303572067240D+01
    -.339560210705D-05  .114228592720D-01  .638887286186D-05  .515362255096D+04
     .489600000000D+06 -.122934579849D-06 -.205043170576D+01  .186264514923D-08
     .995351203916D+00  .275281250000D+03 -.308662656426D+01 -.759281627127D-08
    -.425017703693D-10  .100000000000D+01  .162200000000D+04  .000000000000D+00
     .485000000000D+01  .000000000000D+00 -.465661287308D-08  .750000000000D+02
     .482406000000D+06  .400000000000D+01
10 11  2 11 16  0  0.0 -.659371726215D-04 -.113686837722D-11  .000000000000D+00
     .119000000000D+03  .775000000000D+02  .478305637635D-08  .117053080165D+01
     .425800681114D-05  .100531439530D-01  .850483775139D-05  .515357822800D+04
     .489600000000D+06 -.800937414169D-07  .208026934780D+01  .113621354103D-06
     .949997100792D+00  .209812500000D+03  .695876638261D+00 -.827677333226D-08
    -.222866426138D-09  .100000000000D+01  .162200000000D+04  .000000000000D+00
     .240000000000D+01  .000000000000D+00 -.279396772385D-08  .119000000000D+03
     .482406000000D+06  .400000000000D+01
11 11  2 11 16  0  0.0 -.126392114908D-03 -.306954461848D-11  .000000000000D+00
     .400000000000D+02 -.281250000000D+01  .632097757980D-08 -.242556460991D+01
    -.340864062309D-06  .116168707609D-01  .774115324020D-05  .515349392128D+04
     .489600000000D+06  .199303030968D-06  .762463540238D+00 -.931322574615D-07
     .888137396225D+00  .188406250000D+03  .910716792153D+00 -.865643200371D-08
    -.489306095849D-10  .100000000000D+01  .162200000000D+04  .000000000000D+00
     .240000000000D+01  .000000000000D+00 -.116415321827D-07  .400000000000D+02
     .482406000000D+06  .400000000000D+01
12 11  2 11 16  0  0.0 -.278158113360D-04  .329691829393D-11  .000000000000D+00
     .650000000000D+02 -.422812500000D+02  .407874132452D-08 -.239587113114D+01
    -.213459134102D-05  .360127817839D-02  .790320336819D-05  .515380806541D+04
     .489600000000D+06 -.298023223877D-07 -.106878300157D+01 -.186264514923D-08
     .973770195449D+00  .234843750000D+03 -.284026680314D+00 -.779246744469D-08
     .308227124611D-09  .100000000000D+01  .162200000000D+04  .000000000000D+00
     .240000000000D+01  .000000000000D+00 -.121071934700D-07  .650000000000D+02
     .482406000000D+06  .400000000000D+01
13 11  2 11 16  0  0.0  .282800290734D-03 -.136424205266D-11  .000000000000D+00
     .780000000000D+02  .322500000000D+02  .391337729359D-08  .182305427810D-01
     .157393515110D-05  .447976693977D-02  .435486435890D-05  .515364527321D+04
     .489600000000D+06 -.113621354103D-06 -.310003116559D+01 -.484287738800D-07
     .990988191184D+00  .311437500000D+03  .178899757740D+01 -.800569061201D-08
    -.111790370803D-09  .100000000000D+01  .162200000000D+04  .000000000000D+00
     .240000000000D+01  .000000000000D+00 -.111758708954D-07  .780000000000D+02
     .482406000000D+06  .400000000000D+01
14 11  2 11 16  0  0.0  .130626372993D-03  .272848410532D-11  .000000000000D+00
     .190000000000D+02  .252187500000D+02  .409445626482D-08 -.215890311098D-01
     .133737921715D-05  .563247874379D-02  .454485416412D-05  .515363194275D+04
     .489600000000D+06  .372529029846D-08 -.312352416702D+01  .707805156708D-07
     .984078988554D+00  .305968750000D+03 -.208023477319D+01 -.809319425688D-08
    -.137148569931D-09  .100000000000D+01  .162200000000D+04  .000000000000D+00
     .240000000000D+01  .000000000000D+00 -.884756445885D-08  .190000000000D+02
     .482406000000D+06  .400000000000D+01
15 11  2 11 16  0  0.0 -.152448657900D-03  .352429196937D-11  .000000000000D+00
     .260000000000D+02  .382812500000D+02  .477269880206D-08 -.373657703406D+00
     .193901360035D-05  .332723336760D-02  .429153442383D-05  .515356786156D+04
     .489600000000D+06  .670552253723D-07  .308730940029D+01 -.558793544769D-08
     .951338561561D+00  .291968750000D+03 -.124707263587D+00 -.835249077191D-08
    -.117862052285D-09  .100000000000D+01  .162200000000D+04  .000000000000D+00
     .240000000000D+01  .000000000000D+00 -.977888703346D-08  .260000000000D+02
     .482406000000D+06  .400000000000D+01
16 11  2 11 16  0  0.0 -.149862375110D-03 -.295585778076D-11  .000000000000D+00
     .580000000000D+02 -.404687500000D+02  .409302763389D-08  .149152291877D+01
    -.200793147087D-05  .615826761350D-02  .800937414169D-05  .515375013161D+04
     .489600000000D+06 -.186264514923D-07 -.105104759512D+01  .875443220139D-07
     .974847897939D+00  .230843750000D+03 -.166236486931D+00 -.782104006343D-08
     .235366946835D-09  .100000000000D+01  .162200000000D+04  .000000000000D+00
     .240000000000D+01  .000000000000D+00 -.977888703346D-08  .580000000000D+02
     .482406000000D+06  .400000000000D+01
17 11  2 11 16  0  0.0  .182964839041D-03  .454747350886D-12  .000000000000D+00
     .900000000000D+01 -.207187500000D+02  .477412743300D-08  .419920441040D+00
    -.110641121864D-05  .607054214925D-02  .733137130737D-05  .515370907021D+04
     .489600000000D+06 -.279396772385D-07 -.830545406979D-02  .949949026108D-07
     .961286100213D+00  .239656250000D+03 -.245375268161D+01 -.809283709915D-08
     .118219210019D-09  .100000000000D+01  .162200000000D+04  .000000000000D+00
     .240000000000D+01  .000000000000D+00 -.102445483208D-07  .900000000000D+01
     .482406000000D+06  .400000000000D+01
18 11  2 11 16  0  0.0  .120953656733D-03  .204636307899D-11  .000000000000D+00
     .720000000000D+02  .638437500000D+02  .512342769704D-08  .175961317225D+01
     .326707959175D-05  .118881771341D-01  .753439962864D-05  .515376726341D+04
     .489600000000D+06 -.324100255966D-06  .207629627734D+01 -.745058059692D-07
     .933912285790D+00  .223062500000D+03 -.227564510454D+01 -.839070664947D-08
    -.123576576032D-09  .100000000000D+01  .162200000000D+04  .000000000000D+00
     .240000000000D+01  .000000000000D+00 -.107102096081D-07  .720000000000D+02
     .482406000000D+06  .400000000000D+01
19 11  2 11 16  0  0.0 -.110196415335D-03 -.363797880709D-11  .000000000000D+00
     .860000000000D+02 -.258437500000D+02  .480662878681D-08 -.323189583926D+00
    -.137649476528D-05  .698059075512D-02  .734440982342D-05  .515361475563D+04
     .489600000000D+06  .124797224998D-06  .459986575144D-01 -.260770320892D-07
     .958829098578D+00  .235750000000D+03 -.144220213522D-01 -.814462497061D-08
     .842892252703D-10  .100000000000D+01  .162200000000D+04  .000000000000D+00
     .240000000000D+01  .000000000000D+00 -.149011611938D-07  .860000000000D+02
     .482406000000D+06  .400000000000D+01
20 11  2 11 16  0  0.0  .486751087010D-04  .000000000000D+00  .000000000000D+00
     .980000000000D+02  .843125000000D+02  .502092342733D-08  .213096558594D+01
     .421516597271D-05  .469624716789D-02  .766851007938D-05  .515373466301D+04
     .489600000000D+06  .149011611938D-07  .202234234446D+01 -.931322574615D-07
     .933973845382D+00  .214843750000D+03  .127077175368D+01 -.823248577322D-08
    -.126076680171D-09  .100000000000D+01  .162200000000D+04  .000000000000D+00
     .240000000000D+01  .000000000000D+00 -.791624188423D-08  .980000000000D+02
     .482406000000D+06  .400000000000D+01
